SatCatId,ObjectName,LaunchYear,OrbitalPeriod,LaunchMass,StatusCode,Inclination,Status,UcsData,OrbitClassEstimated,LaunchSiteCountry,Owner,UseType,Purpose,LaunchVehicleClass,TLE1,TLE2,MeanMotion,Eccentricity,OrbitClass
52274,STARLINK-3790,2022,95.44,260.0,+,53.22,Active,1,LEO,USA,USA,Commercial,Communications,Falcon,1 52274U 22041P   23275.86584871  .00002033  00000+0  14576-3 0  9998,2 52274  53.2148 139.2064 0001349  88.9617 271.1530 15.08840428 80182,15.08840428,0.0001349,LEO
52275,STARLINK-3784,2022,95.44,260.0,+,53.22,Active,1,LEO,USA,USA,Commercial,Communications,Falcon,1 52275U 22041Q   23276.33689042  .00005003  00000+0  33230-3 0  9996,2 52275  53.2135 137.0914 0001466  89.0412 271.0748 15.08829788 81462,15.08829788,0.0001466,LEO
52276,STARLINK-3778,2022,95.44,260.0,+,53.22,Active,1,LEO,USA,USA,Commercial,Communications,Falcon,1 52276U 22041R   23275.92840966 -.00000321  00000+0 -20611-5 0  9996,2 52276  53.2169 138.9252 0001524  96.8991 263.2175 15.08835154 81414,15.08835154,0.0001524,LEO
52277,STARLINK-3787,2022,93.87,260.0,P,53.22,Active,1,LEO,USA,USA,Commercial,Communications,Falcon,1 52277U 22041S   23275.87491424  .00131616  00000+0  38290-2 0  9991,2 52277  53.2199 119.7404 0004313 172.6612 187.4455 15.34476354 80460,15.34476354,0.0004313,LEO
52278,STARLINK-3780,2022,95.44,260.0,+,53.22,Active,1,LEO,USA,USA,Commercial,Communications,Falcon,1 52278U 22041T   23276.32216890  .00007175  00000+0  46851-3 0  9990,2 52278  53.2155 137.1557 0001510  86.9811 273.1353 15.08836340 81478,15.0883634,0.000151,LEO
52279,STARLINK-3686,2022,93.97,260.0,+,53.23,Active,1,LEO,USA,USA,Commercial,Communications,Falcon,1 52279U 22041U   23275.85327820  .00083822  00000+0  25975-2 0  9990,2 52279  53.2278 116.3296 0003355 174.4476 185.6564 15.32730562 80514,15.32730562,0.0003355,LEO
52280,STARLINK-3764,2022,95.44,260.0,+,53.22,Active,1,LEO,USA,USA,Commercial,Communications,Falcon,1 52280U 22041V   23276.31112615  .00000242  00000+0  33275-4 0  9997,2 52280  53.2142 137.2061 0001337  87.7637 272.3508 15.08838473 81472,15.08838473,0.0001337,LEO
52281,STARLINK-3779,2022,95.44,260.0,+,53.22,Active,1,LEO,USA,USA,Commercial,Communications,Falcon,1 52281U 22041W   23275.86312164  .00006365  00000+0  41763-3 0  9990,2 52281  53.2155 139.2204 0001795  96.0334 264.0863 15.08839252 80188,15.08839252,0.0001795,LEO
52282,STARLINK-3783,2022,95.44,260.0,+,53.22,Active,1,LEO,USA,USA,Commercial,Communications,Falcon,1 52282U 22041X   23275.84100320  .00004374  00000+0  29269-3 0  9993,2 52282  53.2148 129.3177 0001340  91.9665 268.1480 15.08843785 80318,15.08843785,0.000134,LEO
52283,STARLINK-3789,2022,95.44,260.0,+,53.22,Active,1,LEO,USA,USA,Commercial,Communications,Falcon,1 52283U 22041Y   23275.92104874 -.00000205  00000+0  52243-5 0  9991,2 52283  53.2165 138.9553 0001550  85.2648 274.8521 15.08836465 81411,15.08836465,0.000155,LEO
52284,STARLINK-3561,2022,95.44,260.0,+,53.22,Active,1,LEO,USA,USA,Commercial,Communications,Falcon,1 52284U 22041Z   23275.89988925  .00002026  00000+0  14535-3 0  9997,2 52284  53.2163 129.0537 0001445  98.4579 261.6577 15.08838775 80325,15.08838775,0.0001445,LEO
52285,STARLINK-3775,2022,95.44,260.0,+,53.22,Active,1,LEO,USA,USA,Commercial,Communications,Falcon,1 52285U 22041AA  23275.78488499  .00000818  00000+0  69465-4 0  9997,2 52285  53.2160 139.5666 0001292  88.4970 271.6170 15.08838290 80171,15.0883829,0.0001292,LEO
52286,STARLINK-3802,2022,95.44,260.0,+,53.22,Active,1,LEO,USA,USA,Commercial,Communications,Falcon,1 52286U 22041AB  23276.28996637  .00000572  00000+0  54041-4 0  9993,2 52286  53.2149 127.3025 0001435  95.1277 264.9879 15.08838005 81601,15.08838005,0.0001435,LEO
52287,STARLINK-3822,2022,95.44,260.0,+,53.22,Active,1,LEO,USA,USA,Commercial,Communications,Falcon,1 52287U 22041AC  23275.84376245  .00002675  00000+0  18605-3 0  9993,2 52287  53.2154 139.3014 0001548 113.4310 246.6845 15.08844756 80188,15.08844756,0.0001548,LEO
52288,STARLINK-3776,2022,95.44,260.0,+,53.22,Active,1,LEO,USA,USA,Commercial,Communications,Falcon,1 52288U 22041AD  23275.88884694  .00001451  00000+0  10921-3 0  9994,2 52288  53.2140 129.1007 0001281  93.2448 266.8691 15.08840763 80327,15.08840763,0.0001281,LEO
52289,STARLINK-3751,2022,95.44,260.0,+,53.22,Active,1,LEO,USA,USA,Commercial,Communications,Falcon,1 52289U 22041AE  23275.96980618  .00002004  00000+0  14394-3 0  9990,2 52289  53.2154 128.7380 0001453  94.9909 265.1249 15.08842094 81559,15.08842094,0.0001453,LEO
52290,STARLINK-3772,2022,95.34,260.0,+,53.21,Active,1,LEO,USA,USA,Commercial,Communications,Falcon,1 52290U 22041AF  23276.25001157 -.00013821  00000+0 -81428-3 0  9990,2 52290  53.2152 127.5179 0001132  96.1051 102.9065 15.10473780 81591,15.1047378,0.0001132,LEO
52291,STARLINK-3773,2022,95.44,260.0,+,53.22,Active,1,LEO,USA,USA,Commercial,Communications,Falcon,1 52291U 22041AG  23275.89620446  .00001460  00000+0  10980-3 0  9997,2 52291  53.2160 129.0699 0001453 107.3285 252.7866 15.08842049 80323,15.08842049,0.0001453,LEO
52292,STARLINK-3753,2022,95.44,260.0,+,53.22,Active,1,LEO,USA,USA,Commercial,Communications,Falcon,1 52292U 22041AH  23275.87412657  .00001175  00000+0  91880-4 0  9991,2 52292  53.2150 129.1685 0001360  96.3375 263.7772 15.08843292 80322,15.08843292,0.000136,LEO
52293,STARLINK-3771,2022,95.44,260.0,+,53.21,Active,1,LEO,USA,USA,Commercial,Communications,Falcon,1 52293U 22041AJ  23276.28356164  .00010234  00000+0  66001-3 0  9990,2 52293  53.2152 127.3348 0001239  87.4712 272.6422 15.08846923 81609,15.08846923,0.0001239,LEO
52294,STARLINK-3777,2022,95.44,260.0,+,53.22,Active,1,LEO,USA,USA,Commercial,Communications,Falcon,1 52294U 22041AK  23275.87044494  .00000408  00000+0  43745-4 0  9998,2 52294  53.2141 129.1843 0001320 106.2693 253.8445 15.08840288 80329,15.08840288,0.000132,LEO
52295,STARLINK-3765,2022,95.44,260.0,+,53.21,Active,1,LEO,USA,USA,Commercial,Communications,Falcon,1 52295U 22041AL  23275.88148561  .00001891  00000+0  13686-3 0  9997,2 52295  53.2150 129.1352 0001507  93.9112 266.2052 15.08842697 80328,15.08842697,0.0001507,LEO
52296,STARLINK-3766,2022,95.44,260.0,+,53.22,Active,1,LEO,USA,USA,Commercial,Communications,Falcon,1 52296U 22041AM  23275.85940456 -.00000092  00000+0  12308-4 0  9992,2 52296  53.2150 129.2386 0001642  68.4736 291.6431 15.08827521 80328,15.08827521,0.0001642,LEO
52297,STARLINK-3758,2022,95.44,260.0,+,53.22,Active,1,LEO,USA,USA,Commercial,Communications,Falcon,1 52297U 22041AN  23275.87780173  .00006399  00000+0  41965-3 0  9998,2 52297  53.2154 129.1507 0001349  89.4015 270.7132 15.08849396 80324,15.08849396,0.0001349,LEO
52298,STARLINK-3760,2022,95.44,260.0,+,53.21,Active,1,LEO,USA,USA,Commercial,Communications,Falcon,1 52298U 22041AP  23276.25001157 -.00013935  00000+0 -85932-3 0  9998,2 52298  53.2146 127.0951 0001209 108.3822  74.8621 15.08832098 81607,15.08832098,0.0001209,LEO
52299,STARLINK-3759,2022,95.44,260.0,+,53.22,Active,1,LEO,USA,USA,Commercial,Communications,Falcon,1 52299U 22041AQ  23275.86309139  .00008955  00000+0  57971-3 0  9992,2 52299  53.2146 129.2187 0001296  96.7378 263.3762 15.08861219 80321,15.08861219,0.0001296,LEO
52300,STARLINK-3769,2022,95.44,260.0,+,53.22,Active,1,LEO,USA,USA,Commercial,Communications,Falcon,1 52300U 22041AR  23276.31205084  .00007185  00000+0  46913-3 0  9998,2 52300  53.2150 127.2041 0001577  86.2032 273.9140 15.08836063 81618,15.08836063,0.0001577,LEO
52301,STARLINK-3768,2022,95.44,260.0,+,53.21,Active,1,LEO,USA,USA,Commercial,Communications,Falcon,1 52301U 22041AS  23275.86677113  .00002051  00000+0  14693-3 0  9991,2 52301  53.2147 129.2014 0001299  92.8801 267.2340 15.08832033 80323,15.08832033,0.0001299,LEO
52302,STARLINK-3564,2022,95.44,260.0,+,53.21,Active,1,LEO,USA,USA,Commercial,Communications,Falcon,1 52302U 22041AT  23275.83824487  .00002343  00000+0  16526-3 0  9998,2 52302  53.2142 119.3288 0001434  90.9710 269.1447 15.08838479 80454,15.08838479,0.0001434,LEO
52303,STARLINK-3742,2022,95.44,260.0,+,53.22,Active,1,LEO,USA,USA,Commercial,Communications,Falcon,1 52303U 22041AU  23276.31573094  .00008527  00000+0  55328-3 0  9991,2 52303  53.2147 127.1878 0001436  91.7760 268.3396 15.08832800 81613,15.088328,0.0001436,LEO
52304,STARLINK-3744,2022,95.44,260.0,+,53.22,Active,1,LEO,USA,USA,Commercial,Communications,Falcon,1 52304U 22041AV  23275.83456693  .00001769  00000+0  12923-3 0  9998,2 52304  53.2164 119.3436 0001303 102.9780 257.1357 15.08841621 80451,15.08841621,0.0001303,LEO
52305,STARLINK-3724,2022,95.44,260.0,+,53.22,Active,1,LEO,USA,USA,Commercial,Communications,Falcon,1 52305U 22041AW  23275.85573755  .00000920  00000+0  75882-4 0  9992,2 52305  53.2139 129.3576 0001190  88.1576 271.9552 15.08838268 80322,15.08838268,0.000119,LEO
52306,STARLINK-3747,2022,95.44,260.0,+,53.22,Active,1,LEO,USA,USA,Commercial,Communications,Falcon,1 52306U 22041AX  23276.29456431  .00001219  00000+0  94630-4 0  9997,2 52306  53.2140 117.2817 0001093  83.5933 276.5183 15.08844485 81743,15.08844485,0.0001093,LEO
52307,STARLINK-3755,2022,95.44,260.0,+,53.22,Active,1,LEO,USA,USA,Commercial,Communications,Falcon,1 52307U 22041AY  23275.97716346  .00008569  00000+0  55571-3 0  9991,2 52307  53.2146 128.7070 0001310  91.6058 268.5084 15.08848416 81556,15.08848416,0.000131,LEO
52309,STARLINK-3756,2022,95.44,260.0,+,53.22,Active,1,LEO,USA,USA,Commercial,Communications,Falcon,1 52309U 22041BA  23276.29088474  .00009671  00000+0  62475-3 0  9999,2 52309  53.2147 117.2977 0001209  92.0285 268.0846 15.08847535 81745,15.08847535,0.0001209,LEO
52310,STARLINK-3688,2022,95.54,260.0,+,53.21,Active,1,LEO,USA,USA,Commercial,Communications,Falcon,1 52310U 22041BB  23276.28061831  .00157974  00000+0  10006-1 0  9999,2 52310  53.2142 117.3391 0001535 101.0505 259.0660 15.07793020 81743,15.0779302,0.0001535,LEO
